OBJECT_NAME,OBJECT_ID,EPOCH,MEAN_MOTION,ECCENTRICITY,INCLINATION,RA_OF_ASC_NODE,ARG_OF_PERICENTER,MEAN_ANOMALY,EPHEMERIS_TYPE,CLASSIFICATION_TYPE,NORAD_CAT_ID,ELEMENT_SET_NO,REV_AT_EPOCH,BSTAR,MEAN_MOTION_DOT,MEAN_MOTION_DDOT
FENGYUN 3D,2017-072A,2026-07-05T14:40:53.512608,14.19743309,.00019939,99.0140,161.3677,32.1236,328.0061,0,U,43010,999,44760,.67845148E-4,.97E-6,0
NOAA 20 (JPSS-1),2017-073A,2026-07-05T09:33:29.588832,14.19515232,.0000994,98.7772,125.6992,132.4642,227.6619,0,U,43013,999,44705,.57248E-4,.76E-6,0
GOES 17,2018-022A,2026-07-05T11:42:15.629760,1.00270863,.0000699,0.9807,85.4269,58.1013,226.0203,0,U,43226,999,3060,0,-.169E-5,0
SENTINEL-3B,2018-039A,2026-07-05T05:06:50.233824,14.26740289,.0000921,98.6240,253.4861,117.0798,243.0476,0,U,43437,999,42669,.85603E-4,.164E-5,0
FENGYUN 2H,2018-050A,2026-07-05T15:41:44.803392,1.00268984,.00019034,3.0760,78.8635,122.1926,37.2943,0,U,43491,999,2962,0,-.116E-5,0
METOP-C,2018-087A,2026-07-05T13:55:03.592416,14.21517309,.00021935,98.6635,245.8465,106.0466,254.0953,0,U,43689,999,39744,.74921098E-4,.121E-5,0
GEO-KOMPSAT-2A,2018-100A,2026-07-05T12:44:18.750048,1.00272362,.0002446,0.0414,158.2437,298.9903,145.6339,0,U,43823,999,2781,0,-.33E-5,0
METEOR-M2 2,2019-038A,2026-07-05T13:53:35.962944,14.24371708,.00012435,98.9155,174.1364,20.5206,339.6022,0,U,44387,999,36391,.15998442E-3,.324E-5,0
ARKTIKA-M 1,2021-016A,2026-06-29T22:50:46.732128,2.00617895,.72928178,63.2520,55.7907,269.9910,14.5481,0,U,47719,999,3904,0,-.281E-5,0
FENGYUN 3E,2021-062A,2026-07-05T14:14:43.259136,14.19904802,.00026189,98.7495,189.7965,55.2654,304.8768,0,U,49008,999,25919,-.96465906E-4,-.249E-5,0
GOES 18,2022-021A,2026-07-05T12:26:38.728320,1.00272074,.00005731,0.0358,224.8795,296.6336,171.6564,0,U,51850,999,677,0,.11E-5,0
NOAA 21 (JPSS-2),2022-150A,2026-07-05T08:38:43.876320,14.19540000,.0002564,98.7060,124.8441,121.6090,238.5337,0,U,54234,999,18912,.6902144E-4,.102E-5,0
METEOSAT-12 (MTG-I1),2022-170C,2026-07-05T08:42:25.309152,1.00276450,.00034825,0.7580,25.7060,76.0889,311.9731,0,U,54743,999,1316,0,.7E-7,0
TIANMU-1 03,2023-039A,2026-07-05T16:08:26.643840,15.47841910,.00033469,97.5245,1.3723,50.9394,309.2153,0,U,55973,999,18369,.29874884E-3,.15444E-3,0
TIANMU-1 04,2023-039B,2026-07-05T14:09:48.412224,15.48455479,.00038541,97.5179,0.4422,46.1919,313.9649,0,U,55974,999,18369,.3140879E-3,.16596E-3,0
TIANMU-1 05,2023-039C,2026-07-05T15:42:02.551680,15.47764292,.00036336,97.5226,0.9616,70.8519,289.3124,0,U,55975,999,18367,.30086505E-3,.15513E-3,0
TIANMU-1 06,2023-039D,2026-07-05T14:16:21.570240,15.48354195,.00038349,97.5232,1.5542,64.9622,295.2026,0,U,55976,999,18369,.31613987E-3,.16646E-3,0
FENGYUN 3G,2023-055A,2026-07-05T13:44:21.986880,15.53481035,.0007271,49.9918,251.2338,13.5695,346.5467,0,U,56232,999,18286,.38564512E-3,.24598E-3,0
METEOR-M2 3,2023-091A,2026-07-05T15:32:41.953056,14.24048407,.00050853,98.6078,241.2475,111.6390,248.5331,0,U,57166,999,15714,.20359677E-4,.4E-7,0
TIANMU-1 07,2023-101A,2026-07-05T14:38:17.492352,15.30035513,.00042094,97.2578,236.8564,84.3079,275.8642,0,U,57399,999,16446,.26575723E-3,.7654E-4,0
TIANMU-1 08,2023-101B,2026-07-05T13:50:10.991040,15.30039781,.00053328,97.2566,236.5917,71.1172,289.0647,0,U,57400,999,16445,.25192879E-3,.7254E-4,0
TIANMU-1 09,2023-101C,2026-07-05T14:59:53.356704,15.30078932,.00047916,97.2525,236.0454,86.0006,274.1782,0,U,57401,999,16446,.26969913E-3,.778E-4,0
TIANMU-1 10,2023-101D,2026-07-05T14:13:46.831296,15.30051913,.0006262,97.2604,237.0835,79.5273,280.6674,0,U,57402,999,16445,.25517229E-3,.7352E-4,0
FENGYUN 3F,2023-111A,2026-07-05T15:32:24.012096,14.19942372,.00014537,98.6829,256.3117,81.0247,279.1094,0,U,57490,999,15148,.5115453E-4,.65E-6,0
ARKTIKA-M 2,2023-198A,2026-06-29T17:20:14.637696,2.00610643,.69058771,63.2199,152.9641,267.3845,18.7575,0,U,58584,999,1857,0,.148E-5,0
TIANMU-1 11,2023-205A,2026-07-05T14:20:20.391072,15.27195043,.0006965,97.3443,207.8666,305.3511,54.7077,0,U,58645,999,14033,.25910087E-3,.6838E-4,0
TIANMU-1 12,2023-205B,2026-07-05T13:39:03.323808,15.27023525,.00054667,97.3431,207.5893,279.6233,80.4388,0,U,58646,999,14031,.24062045E-3,.631E-4,0
TIANMU-1 13,2023-205C,2026-07-05T14:27:08.686368,15.27016934,.00050484,97.3459,207.8987,255.1704,104.8976,0,U,58647,999,14031,.27186827E-3,.7138E-4,0
TIANMU-1 14,2023-205D,2026-07-05T14:05:04.030080,15.27061240,.00057972,97.3395,207.0510,262.9904,97.0675,0,U,58648,999,14031,.25678717E-3,.6748E-4,0
TIANMU-1 19,2023-208A,2026-07-05T13:53:45.809088,15.31868843,.00037585,97.4519,302.9775,238.2537,121.8339,0,U,58660,999,14014,.2971296E-3,.9067E-4,0
